{"type": "FeatureCollection", "features": [ {"type": "Feature", "properties": {"norad_id": 66876, "name": "STARLINK-35702", "group": "last-30-days", "lat": -14.949562135839093, "lon": -64.79456321570075, "alt_km": 333.94670891644546, "timestamp": "2025-12-16T13:52:36.288376+00:00", "meta": {"OBJECT_NAME": "STARLINK-35702", "OBJECT_ID": "2025-281AE", "EPOCH": "2025-12-15T22:00:01.999584", "MEAN_MOTION": 15.81693329, "ECCENTRICITY": 0.00016294, "INCLINATION": 43.0004, "RA_OF_ASC_NODE": 102.6012, "ARG_OF_PERICENTER": 285.8558, "MEAN_ANOMALY": 107.9081, "EPHEMERIS_TYPE": 0, "CLASSIFICATION_TYPE": "U", "NORAD_CAT_ID": 66876, "ELEMENT_SET_NO": 999, "REV_AT_EPOCH": 194, "BSTAR": -0.009241859, "MEAN_MOTION_DOT": -0.01665787, "MEAN_MOTION_DDOT": 0}, "tle": {"line1": "1 66876U 25281AE  25349.91668981 -.01665787  00000+0 -92419-2 0  9990", "line2": "2 66876  43.0004 102.6012 0001629 285.8558 107.9081 15.81693329  1944"}}, "geometry": {"type": "Point", "coordinates": [-64.79456321570075, -14.949562135839093]}}, {"type": "Feature", "properties": {"norad_id": 66877, "name": "ZQ-3 R/B", "group": "last-30-days", "lat": 24.07764685215217, "lon": 59.80621518097318, "alt_km": 1165.5386789992554, "timestamp": "2025-12-16T13:52:36.288387+00:00", "meta": {"OBJECT_NAME": "ZQ-3 R/B", "OBJECT_ID": "2025-282A", "EPOCH": "2025-12-15T21:22:09.592320", "MEAN_MOTION": 14.65987798, "ECCENTRICITY": 0.07520265, "INCLINATION": 56.9513, "RA_OF_ASC_NODE": 45.5548, "ARG_OF_PERICENTER": 225.435, "MEAN_ANOMALY": 128.288, "EPHEMERIS_TYPE": 0, "CLASSIFICATION_TYPE": "U", "NORAD_CAT_ID": 66877, "ELEMENT_SET_NO": 999, "REV_AT_EPOCH": 185, "BSTAR": 0.00018675553, "MEAN_MOTION_DOT": 0.00969078, "MEAN_MOTION_DDOT": 7.600091e-06}, "tle": {"line1": "1 66877U 25282A   25349.89038880  .00969078  76001-5  18676-3 0  9999", "line2": "2 66877  56.9513  45.5548 0752026 225.4350 128.2880 14.65987798  1856"}}, "geometry": {"type": "Point", "coordinates": [59.80621518097318, 24.07764685215217]}}, {"type": "Feature", "properties": {"norad_id": 66878, "name": "STARLINK-35866", "group": "last-30-days", "lat": -27.361883672448794, "lon": -102.66102273666449, "alt_km": 315.8922800856708, "timestamp": "2025-12-16T13:52:36.288399+00:00", "meta": {"OBJECT_NAME": "STARLINK-35866", "OBJECT_ID": "2025-283A", "EPOCH": "2025-12-15T14:18:28.128096", "MEAN_MOTION": 15.87676203, "ECCENTRICITY": 0.00017351, "INCLINATION": 53.1555, "RA_OF_ASC_NODE": 59.4756, "ARG_OF_PERICENTER": 38.8295, "MEAN_ANOMALY": 321.2855, "EPHEMERIS_TYPE": 0, "CLASSIFICATION_TYPE": "U", "NORAD_CAT_ID": 66878, "ELEMENT_SET_NO": 999, "REV_AT_EPOCH": 290, "BSTAR": -0.0015143055, "MEAN_MOTION_DOT": -0.00396627, "MEAN_MOTION_DDOT": 0}, "tle": {"line1": "1 66878U 25283A   25349.59615889 -.00396627  00000+0 -15143-2 0  9999", "line2": "2 66878  53.1555  59.4756 0001735  38.8295 321.2855 15.87676203  2900"}}, "geometry": {"type": "Point", "coordinates": [-102.66102273666449, -27.361883672448794]}}, {"type": "Feature", "properties": {"norad_id": 66879, "name": "STARLINK-35749", "group": "last-30-days", "lat": -31.276844545619344, "lon": -98.40871348076013, "alt_km": 315.8594186259652, "timestamp": "2025-12-16T13:52:36.288411+00:00", "meta": {"OBJECT_NAME": "STARLINK-35749", "OBJECT_ID": "2025-283B", "EPOCH": "2025-12-15T12:46:30.732096", "MEAN_MOTION": 15.87852809, "ECCENTRICITY": 0.00013438, "INCLINATION": 53.1557, "RA_OF_ASC_NODE": 59.788, "ARG_OF_PERICENTER": 62.1965, "MEAN_ANOMALY": 297.9197, "EPHEMERIS_TYPE": 0, "CLASSIFICATION_TYPE": "U", "NORAD_CAT_ID": 66879, "ELEMENT_SET_NO": 999, "REV_AT_EPOCH": 289, "BSTAR": -0.0017725258, "MEAN_MOTION_DOT": -0.00464658, "MEAN_MOTION_DDOT": 0}, "tle": {"line1": "1 66879U 25283B   25349.53230014 -.00464658  00000+0 -17725-2 0  9995", "line2": "2 66879  53.1557  59.7880 0001343  62.1965 297.9197 15.87852809  2897"}}, "geometry": {"type": "Point", "coordinates": [-98.40871348076013, -31.276844545619344]}}, {"type": "Feature", "properties": {"norad_id": 66880, "name": "STARLINK-35844", "group": "last-30-days", "lat": -28.788334802136163, "lon": -101.16529610963701, "alt_km": 314.3682346024061, "timestamp": "2025-12-16T13:52:36.288421+00:00", "meta": {"OBJECT_NAME": "STARLINK-35844", "OBJECT_ID": "2025-283C", "EPOCH": "2025-12-15T18:49:51.972384", "MEAN_MOTION": 15.87309644, "ECCENTRICITY": 4.569e-05, "INCLINATION": 53.1554, "RA_OF_ASC_NODE": 58.5171, "ARG_OF_PERICENTER": 234.7276, "MEAN_ANOMALY": 125.3707, "EPHEMERIS_TYPE": 0, "CLASSIFICATION_TYPE": "U", "NORAD_CAT_ID": 66880, "ELEMENT_SET_NO": 999, "REV_AT_EPOCH": 293, "BSTAR": -0.00089101328, "MEAN_MOTION_DOT": -0.00233613, "MEAN_MOTION_DDOT": 0}, "tle": {"line1": "1 66880U 25283C   25349.78462931 -.00233613  00000+0 -89101-3 0  9992", "line2": "2 66880  53.1554  58.5171 0000456 234.7276 125.3707 15.87309644  2932"}}, "geometry": {"type": "Point", "coordinates": [-101.16529610963701, -28.788334802136163]}}, {"type": "Feature", "properties": {"norad_id": 66881, "name": "STARLINK-35860", "group": "last-30-days", "lat": -33.30726792739092, "lon": -95.99361728879788, "alt_km": 314.9840109436109, "timestamp": "2025-12-16T13:52:36.288434+00:00", "meta": {"OBJECT_NAME": "STARLINK-35860", "OBJECT_ID": "2025-283D", "EPOCH": "2025-12-15T12:45:58.384800", "MEAN_MOTION": 15.87947247, "ECCENTRICITY": 0.00010399, "INCLINATION": 53.155, "RA_OF_ASC_NODE": 59.7851, "ARG_OF_PERICENTER": 15.295, "MEAN_ANOMALY": 344.8107, "EPHEMERIS_TYPE": 0, "CLASSIFICATION_TYPE": "U", "NORAD_CAT_ID": 66881, "ELEMENT_SET_NO": 999, "REV_AT_EPOCH": 289, "BSTAR": -0.0013762426, "MEAN_MOTION_DOT": -0.00366575, "MEAN_MOTION_DDOT": 0}, "tle": {"line1": "1 66881U 25283D   25349.53192575 -.00366575  00000+0 -13762-2 0  9993", "line2": "2 66881  53.1550  59.7851 0001039  15.2950 344.8107 15.87947247  2890"}}, "geometry": {"type": "Point", "coordinates": [-95.99361728879788, -33.30726792739092]}}, {"type": "Feature", "properties": {"norad_id": 66882, "name": "STARLINK-35912", "group": "last-30-days", "lat": -34.35166177481719, "lon": -94.68379165556668, "alt_km": 316.354117653962, "timestamp": "2025-12-16T13:52:36.288444+00:00", "meta": {"OBJECT_NAME": "STARLINK-35912", "OBJECT_ID": "2025-283E", "EPOCH": "2025-12-15T14:16:01.920288", "MEAN_MOTION": 15.87741947, "ECCENTRICITY": 0.00017716, "INCLINATION": 53.1554, "RA_OF_ASC_NODE": 59.464, "ARG_OF_PERICENTER": 36.1132, "MEAN_ANOMALY": 324.0013, "EPHEMERIS_TYPE": 0, "CLASSIFICATION_TYPE": "U", "NORAD_CAT_ID": 66882, "ELEMENT_SET_NO": 999, "REV_AT_EPOCH": 290, "BSTAR": -0.0016167234, "MEAN_MOTION_DOT": -0.0042353, "MEAN_MOTION_DDOT": 0}, "tle": {"line1": "1 66882U 25283E   25349.59446667 -.00423530  00000+0 -16167-2 0  9991", "line2": "2 66882  53.1554  59.4640 0001771  36.1132 324.0013 15.87741947  2902"}}, "geometry": {"type": "Point", "coordinates": [-94.68379165556668, -34.35166177481719]}}, {"type": "Feature", "properties": {"norad_id": 66883, "name": "STARLINK-35947", "group": "last-30-days", "lat": -37.674761591364295, "lon": -90.14199184355475, "alt_km": 312.0162448854235, "timestamp": "2025-12-16T13:52:36.288456+00:00", "meta": {"OBJECT_NAME": "STARLINK-35947", "OBJECT_ID": "2025-283F", "EPOCH": "2025-12-15T21:48:37.692576", "MEAN_MOTION": 15.87815943, "ECCENTRICITY": 0.00020614, "INCLINATION": 53.1554, "RA_OF_ASC_NODE": 57.868, "ARG_OF_PERICENTER": 40.1328, "MEAN_ANOMALY": 319.9849, "EPHEMERIS_TYPE": 0, "CLASSIFICATION_TYPE": "U", "NORAD_CAT_ID": 66883, "ELEMENT_SET_NO": 999, "REV_AT_EPOCH": 297, "BSTAR": 0.0018548924, "MEAN_MOTION_DOT": 0.00541804, "MEAN_MOTION_DDOT": 0}, "tle": {"line1": "1 66883U 25283F   25349.90876959  .00541804  00000+0  18549-2 0  9997", "line2": "2 66883  53.1554  57.8680 0002061  40.1328 319.9849 15.87815943  2979"}}, "geometry": {"type": "Point", "coordinates": [-90.14199184355475, -37.674761591364295]}}, {"type": "Feature", "properties": {"norad_id": 66884, "name": "STARLINK-36057", "group": "last-30-days", "lat": -40.86124355848256, "lon": -85.09405247911296, "alt_km": 312.25996769234735, "timestamp": "2025-12-16T13:52:36.288466+00:00", "meta": {"OBJECT_NAME": "STARLINK-36057", "OBJECT_ID": "2025-283G", "EPOCH": "2025-12-15T21:47:21.222528", "MEAN_MOTION": 15.87828815, "ECCENTRICITY": 0.00021258, "INCLINATION": 53.1552, "RA_OF_ASC_NODE": 57.8616, "ARG_OF_PERICENTER": 44.1881, "MEAN_ANOMALY": 315.9314, "EPHEMERIS_TYPE": 0, "CLASSIFICATION_TYPE": "U", "NORAD_CAT_ID": 66884, "ELEMENT_SET_NO": 999, "REV_AT_EPOCH": 295, "BSTAR": 0.0017612472, "MEAN_MOTION_DOT": 0.00513046, "MEAN_MOTION_DDOT": 0}, "tle": {"line1": "1 66884U 25283G   25349.90788452  .00513046  00000+0  17612-2 0  9995", "line2": "2 66884  53.1552  57.8616 0002125  44.1881 315.9314 15.87828815  2959"}}, "geometry": {"type": "Point", "coordinates": [-85.09405247911296, -40.86124355848256]}}, {"type": "Feature", "properties": {"norad_id": 66885, "name": "STARLINK-35954", "group": "last-30-days", "lat": -36.99089750741494, "lon": -91.12838979976488, "alt_km": 318.64837010172323, "timestamp": "2025-12-16T13:52:36.288476+00:00", "meta": {"OBJECT_NAME": "STARLINK-35954", "OBJECT_ID": "2025-283H", "EPOCH": "2025-12-15T21:48:11.589408", "MEAN_MOTION": 15.87027142, "ECCENTRICITY": 0.00054547, "INCLINATION": 53.1553, "RA_OF_ASC_NODE": 57.8661, "ARG_OF_PERICENTER": 57.3413, "MEAN_ANOMALY": 302.8137, "EPHEMERIS_TYPE": 0, "CLASSIFICATION_TYPE": "U", "NORAD_CAT_ID": 66885, "ELEMENT_SET_NO": 999, "REV_AT_EPOCH": 295, "BSTAR": -0.00020260527, "MEAN_MOTION_DOT": -0.00054134, "MEAN_MOTION_DDOT": 0}, "tle": {"line1": "1 66885U 25283H   25349.90846747 -.00054134  00000+0 -20261-3 0  9993", "line2": "2 66885  53.1553  57.8661 0005454  57.3413 302.8137 15.87027142  2958"}}, "geometry": {"type": "Point", "coordinates": [-91.12838979976488, -36.99089750741494]}}]}